KUIPER-00112            
1 65150U 25171U   25360.71397582  .00005561  00000+0  75763-3 0  9998
2 65150  51.9009 118.2888 0008767 280.4948  79.5027 14.79934900 22114
KUIPER-00114            
1 65151U 25171V   25360.72607997 -.00002364  00000+0 -28096-3 0  9991
2 65151  51.8986 138.2479 0005917 215.7245 144.3322 14.79935665 21837
KUIPER-00115            
1 65152U 25171W   25359.65383181  .00002989  00000+0  42069-3 0  9995
2 65152  51.9000 135.4732 0009433 237.7696 122.2352 14.79955005 21780
KUIPER-00116            
1 65153U 25171X   25359.68224680  .00003797  00000+0  52674-3 0  9998
2 65153  51.8987 140.3902 0009744 203.0043 157.0484 14.79934117 21711
KUIPER-00118            
1 65154U 25171Y   25360.76006324  .00005017  00000+0  68633-3 0  9992
2 65154  51.9007 138.0799 0001208 187.9047 172.1897 14.79950409 21847
KUIPER-00119            
1 65155U 25171Z   25360.63840471  .00005257  00000+0  71741-3 0  9998
2 65155  51.9005 126.2010 0007974 237.2082 122.8112 14.79964173 21996
KUIPER-00120            
1 65762U 25217A   25361.00003472  .00026728  00000+0  36555-2 0  9996
2 65762  51.8996  13.2968 0003379  62.2172 151.8899 14.78346673  5361
KUIPER-00132            
1 65763U 25217B   25360.28678435  .00049914  00000+0  13257-2 0  9999
2 65763  51.8635 359.2056 0008151  64.3442 295.8386 15.37748935 14126
